{"type": "FeatureCollection", "features": [ {"type": "Feature", "properties": {"norad_id": 38552, "name": "METEOSAT-10 (MSG-3)", "group": "weather", "lat": -4.225422781366917, "lon": -25.85607894351724, "alt_km": 35782.87110312937, "timestamp": "2025-12-10T16:57:11.277445+00:00", "meta": {"OBJECT_NAME": "METEOSAT-10 (MSG-3)", "OBJECT_ID": "2012-035B", "EPOCH": "2025-12-09T20:25:24.031776", "MEAN_MOTION": 1.00274082, "ECCENTRICITY": 8.515e-05, "INCLINATION": 4.2224, "RA_OF_ASC_NODE": 61.7294, "ARG_OF_PERICENTER": 241.822, "MEAN_ANOMALY": 81.7823, "EPHEMERIS_TYPE": 0, "CLASSIFICATION_TYPE": "U", "NORAD_CAT_ID": 38552, "ELEMENT_SET_NO": 999, "REV_AT_EPOCH": 4895, "BSTAR": 0, "MEAN_MOTION_DOT": -4e-08, "MEAN_MOTION_DDOT": 0}, "tle": {"line1": "1 38552U 12035B   25343.85097259 -.00000004  00000+0  00000+0 0  9999", "line2": "2 38552   4.2224  61.7294 0000851 241.8220  81.7823  1.00274082 48950"}}, "geometry": {"type": "Point", "coordinates": [-25.85607894351724, -4.225422781366917]}}, {"type": "Feature", "properties": {"norad_id": 38771, "name": "METOP-B", "group": "weather", "lat": 50.29445706762419, "lon": -134.69914134296707, "alt_km": 814.0413515137616, "timestamp": "2025-12-10T16:57:11.277457+00:00", "meta": {"OBJECT_NAME": "METOP-B", "OBJECT_ID": "2012-049A", "EPOCH": "2025-12-10T09:35:29.208768", "MEAN_MOTION": 14.21407015, "ECCENTRICITY": 0.0002814, "INCLINATION": 98.6803, "RA_OF_ASC_NODE": 34.3981, "ARG_OF_PERICENTER": 149.1513, "MEAN_ANOMALY": 210.983, "EPHEMERIS_TYPE": 0, "CLASSIFICATION_TYPE": "U", "NORAD_CAT_ID": 38771, "ELEMENT_SET_NO": 999, "REV_AT_EPOCH": 68644, "BSTAR": 0.00011904, "MEAN_MOTION_DOT": 2.16e-06, "MEAN_MOTION_DDOT": 0}, "tle": {"line1": "1 38771U 12049A   25344.39964362  .00000216  00000+0  11904-3 0  9998", "line2": "2 38771  98.6803  34.3981 0002814 149.1513 210.9830 14.21407015686445"}}, "geometry": {"type": "Point", "coordinates": [-134.69914134296707, 50.29445706762419]}}, {"type": "Feature", "properties": {"norad_id": 39216, "name": "INSAT-3D", "group": "weather", "lat": 0.4734090817679173, "lon": 103.50042085079889, "alt_km": 35791.84742615066, "timestamp": "2025-12-10T16:57:11.277469+00:00", "meta": {"OBJECT_NAME": "INSAT-3D", "OBJECT_ID": "2013-038B", "EPOCH": "2025-12-10T05:30:26.805024", "MEAN_MOTION": 1.00270959, "ECCENTRICITY": 0.0001606, "INCLINATION": 1.4387, "RA_OF_ASC_NODE": 85.0161, "ARG_OF_PERICENTER": 162.7742, "MEAN_ANOMALY": 43.5747, "EPHEMERIS_TYPE": 0, "CLASSIFICATION_TYPE": "U", "NORAD_CAT_ID": 39216, "ELEMENT_SET_NO": 999, "REV_AT_EPOCH": 4518, "BSTAR": 0, "MEAN_MOTION_DOT": -3.35e-06, "MEAN_MOTION_DDOT": 0}, "tle": {"line1": "1 39216U 13038B   25344.22947691 -.00000335  00000+0  00000+0 0  9994", "line2": "2 39216   1.4387  85.0161 0001606 162.7742  43.5747  1.00270959 45180"}}, "geometry": {"type": "Point", "coordinates": [103.50042085079889, 0.4734090817679173]}}, {"type": "Feature", "properties": {"norad_id": 39260, "name": "FENGYUN 3C", "group": "weather", "lat": 56.516897165236024, "lon": -50.54367590725911, "alt_km": 842.8259519855883, "timestamp": "2025-12-10T16:57:11.277480+00:00", "meta": {"OBJECT_NAME": "FENGYUN 3C", "OBJECT_ID": "2013-052A", "EPOCH": "2025-12-10T11:35:35.139840", "MEAN_MOTION": 14.15695217, "ECCENTRICITY": 0.0014158, "INCLINATION": 98.4761, "RA_OF_ASC_NODE": 322.2726, "ARG_OF_PERICENTER": 202.7278, "MEAN_ANOMALY": 157.3272, "EPHEMERIS_TYPE": 0, "CLASSIFICATION_TYPE": "U", "NORAD_CAT_ID": 39260, "ELEMENT_SET_NO": 999, "REV_AT_EPOCH": 63186, "BSTAR": 0.00012391, "MEAN_MOTION_DOT": 2.02e-06, "MEAN_MOTION_DDOT": 0}, "tle": {"line1": "1 39260U 13052A   25344.48304560  .00000202  00000+0  12391-3 0  9991", "line2": "2 39260  98.4761 322.2726 0014158 202.7278 157.3272 14.15695217631860"}}, "geometry": {"type": "Point", "coordinates": [-50.54367590725911, 56.516897165236024]}}, {"type": "Feature", "properties": {"norad_id": 40069, "name": "METEOR-M 2", "group": "weather", "lat": -2.6751640618334953, "lon": -37.2316434550067, "alt_km": 826.6450204834046, "timestamp": "2025-12-10T16:57:11.277491+00:00", "meta": {"OBJECT_NAME": "METEOR-M 2", "OBJECT_ID": "2014-037A", "EPOCH": "2025-12-10T11:53:50.911296", "MEAN_MOTION": 14.21385695, "ECCENTRICITY": 0.0004871, "INCLINATION": 98.4903, "RA_OF_ASC_NODE": 322.1659, "ARG_OF_PERICENTER": 217.4198, "MEAN_ANOMALY": 142.6642, "EPHEMERIS_TYPE": 0, "CLASSIFICATION_TYPE": "U", "NORAD_CAT_ID": 40069, "ELEMENT_SET_NO": 999, "REV_AT_EPOCH": 59251, "BSTAR": 0.00024954, "MEAN_MOTION_DOT": 5.03e-06, "MEAN_MOTION_DDOT": 0}, "tle": {"line1": "1 40069U 14037A   25344.49572814  .00000503  00000+0  24954-3 0  9996", "line2": "2 40069  98.4903 322.1659 0004871 217.4198 142.6642 14.21385695592515"}}, "geometry": {"type": "Point", "coordinates": [-37.2316434550067, -2.6751640618334953]}}, {"type": "Feature", "properties": {"norad_id": 40267, "name": "HIMAWARI-8", "group": "weather", "lat": -0.008747533312709135, "lon": 114.63055549050372, "alt_km": 35791.70124834591, "timestamp": "2025-12-10T16:57:11.277502+00:00", "meta": {"OBJECT_NAME": "HIMAWARI-8", "OBJECT_ID": "2014-060A", "EPOCH": "2025-12-10T08:49:38.682048", "MEAN_MOTION": 1.00270438, "ECCENTRICITY": 0.0001237, "INCLINATION": 0.034, "RA_OF_ASC_NODE": 206.5941, "ARG_OF_PERICENTER": 92.8974, "MEAN_ANOMALY": 52.9234, "EPHEMERIS_TYPE": 0, "CLASSIFICATION_TYPE": "U", "NORAD_CAT_ID": 40267, "ELEMENT_SET_NO": 999, "REV_AT_EPOCH": 4086, "BSTAR": 0, "MEAN_MOTION_DOT": -2.72e-06, "MEAN_MOTION_DDOT": 0}, "tle": {"line1": "1 40267U 14060A   25344.36780882 -.00000272  00000+0  00000+0 0  9990", "line2": "2 40267   0.0340 206.5941 0001237  92.8974  52.9234  1.00270438 40865"}}, "geometry": {"type": "Point", "coordinates": [114.63055549050372, -0.008747533312709135]}}, {"type": "Feature", "properties": {"norad_id": 40367, "name": "FENGYUN 2G", "group": "weather", "lat": -0.12109373076320294, "lon": 73.57123703941468, "alt_km": 35800.777875505606, "timestamp": "2025-12-10T16:57:11.277514+00:00", "meta": {"OBJECT_NAME": "FENGYUN 2G", "OBJECT_ID": "2014-090A", "EPOCH": "2025-12-10T13:59:46.750272", "MEAN_MOTION": 1.0026471, "ECCENTRICITY": 0.0003114, "INCLINATION": 5.163, "RA_OF_ASC_NODE": 75.1181, "ARG_OF_PERICENTER": 194.5305, "MEAN_ANOMALY": 119.4364, "EPHEMERIS_TYPE": 0, "CLASSIFICATION_TYPE": "U", "NORAD_CAT_ID": 40367, "ELEMENT_SET_NO": 999, "REV_AT_EPOCH": 4010, "BSTAR": 0, "MEAN_MOTION_DOT": -2.97e-06, "MEAN_MOTION_DDOT": 0}, "tle": {"line1": "1 40367U 14090A   25344.58317998 -.00000297  00000+0  00000+0 0  9999", "line2": "2 40367   5.1630  75.1181 0003114 194.5305 119.4364  1.00264710 40100"}}, "geometry": {"type": "Point", "coordinates": [73.57123703941468, -0.12109373076320294]}}, {"type": "Feature", "properties": {"norad_id": 40732, "name": "METEOSAT-11 (MSG-4)", "group": "weather", "lat": -2.7305652620627074, "lon": -16.693394560305645, "alt_km": 35791.273224487864, "timestamp": "2025-12-10T16:57:11.277526+00:00", "meta": {"OBJECT_NAME": "METEOSAT-11 (MSG-4)", "OBJECT_ID": "2015-034A", "EPOCH": "2025-12-09T22:35:38.584320", "MEAN_MOTION": 1.00266624, "ECCENTRICITY": 9.647e-05, "INCLINATION": 2.7284, "RA_OF_ASC_NODE": 72.0094, "ARG_OF_PERICENTER": 122.8009, "MEAN_ANOMALY": 232.3625, "EPHEMERIS_TYPE": 0, "CLASSIFICATION_TYPE": "U", "NORAD_CAT_ID": 40732, "ELEMENT_SET_NO": 999, "REV_AT_EPOCH": 531, "BSTAR": 0, "MEAN_MOTION_DOT": 6.4e-07, "MEAN_MOTION_DDOT": 0}, "tle": {"line1": "1 40732U 15034A   25343.94141880  .00000064  00000+0  00000+0 0  9999", "line2": "2 40732   2.7284  72.0094 0000964 122.8009 232.3625  1.00266624  5313"}}, "geometry": {"type": "Point", "coordinates": [-16.693394560305645, -2.7305652620627074]}}, {"type": "Feature", "properties": {"norad_id": 41105, "name": "ELEKTRO-L 2", "group": "weather", "lat": -5.720076882088229, "lon": -40.61625541551221, "alt_km": 35775.9165600742, "timestamp": "2025-12-10T16:57:11.277538+00:00", "meta": {"OBJECT_NAME": "ELEKTRO-L 2", "OBJECT_ID": "2015-074A", "EPOCH": "2025-12-09T01:31:10.511904", "MEAN_MOTION": 1.00271905, "ECCENTRICITY": 0.00038363, "INCLINATION": 6.2161, "RA_OF_ASC_NODE": 72.8685, "ARG_OF_PERICENTER": 198.9202, "MEAN_ANOMALY": 174.5582, "EPHEMERIS_TYPE": 0, "CLASSIFICATION_TYPE": "U", "NORAD_CAT_ID": 41105, "ELEMENT_SET_NO": 999, "REV_AT_EPOCH": 3660, "BSTAR": 0, "MEAN_MOTION_DOT": -1.16e-06, "MEAN_MOTION_DDOT": 0}, "tle": {"line1": "1 41105U 15074A   25343.06331611 -.00000116  00000+0  00000+0 0  9993", "line2": "2 41105   6.2161  72.8685 0003836 198.9202 174.5582  1.00271905 36608"}}, "geometry": {"type": "Point", "coordinates": [-40.61625541551221, -5.720076882088229]}}, {"type": "Feature", "properties": {"norad_id": 41752, "name": "INSAT-3DR", "group": "weather", "lat": -0.03447223462734367, "lon": 48.086016224952395, "alt_km": 35831.77333050093, "timestamp": "2025-12-10T16:57:11.277550+00:00", "meta": {"OBJECT_NAME": "INSAT-3DR", "OBJECT_ID": "2016-054A", "EPOCH": "2025-12-10T08:41:38.596128", "MEAN_MOTION": 1.00270503, "ECCENTRICITY": 0.0014472, "INCLINATION": 0.0862, "RA_OF_ASC_NODE": 86.5692, "ARG_OF_PERICENTER": 183.809, "MEAN_ANOMALY": 13.3753, "EPHEMERIS_TYPE": 0, "CLASSIFICATION_TYPE": "U", "NORAD_CAT_ID": 41752, "ELEMENT_SET_NO": 999, "REV_AT_EPOCH": 3392, "BSTAR": 0, "MEAN_MOTION_DOT": -7.3e-07, "MEAN_MOTION_DDOT": 0}, "tle": {"line1": "1 41752U 16054A   25344.36225227 -.00000073  00000+0  00000+0 0  9991", "line2": "2 41752   0.0862  86.5692 0014472 183.8090  13.3753  1.00270503 33927"}}, "geometry": {"type": "Point", "coordinates": [48.086016224952395, -0.03447223462734367]}}]}